{
    "resultMap": {
        "arv": [{
            "optTxt": " METAR ZBAA 210200Z VRB01MPS 3000 BR NSC 27/22 Q1009 NOSIG=",
            "optTypeShort": "SA"
        }, {
            "optTxt": " TAF ZBAA 210130Z 210312 18004MPS 5000 BR NSC=",
            "optTypeShort": "FC"
        }, {
            "optTxt": " SPECI ZBAA 200552Z 34005MPS 330V080 8000 -SHRA FEW040TCU SCT040 29/20 Q1008 NOSIG=",
            "optTypeShort": "SP"
        }],
        "depChn": "广州",
        "dep4Cd": "ZGGG",
        "arv4Cd": "ZBAA",
        "arvChn": "北京",
        "divMetar": [{
            "optTxt": " METAR ZGGG 210200Z 32004MPS 7000 SCT043 31/26 Q1000 NOSIG=",
            "optTypeShort": "SA"
        }, {
            "optTxt": " SPECI ZGGG 200703Z VRB03MPS 0800 R20L/1200N R20R/P2000 +TSRA SCT026CB SCT026 28/26 Q0999 BECMG AT0750 NSW=",
            "optTypeShort": "SP"
        }],
        "dep": [{
            "optTxt": " METAR ZGGG 210200Z 32004MPS 7000 SCT043 31/26 Q1000 NOSIG=",
            "optTypeShort": "SA"
        }, {
            "optTxt": " TAF ZGGG 210100Z 210312 07004MPS 8000 SCT040 TEMPO 0408 TSRA SCT011 SCT030CB BKN033 TEMPO 0812 TSRA SCT011 SCT030CB BKN033=",
            "optTypeShort": "FC"
        }, {
            "optTxt": " SPECI ZGGG 200703Z VRB03MPS 0800 R20L/1200N R20R/P2000 +TSRA SCT026CB SCT026 28/26 Q0999 BECMG AT0750 NSW=",
            "optTypeShort": "SP"
        }],
        "info": [{
            "optTxt": " ZSHA SIGMET 3 VALID 202230/210230 ZSSS- ZSHA SHANGHAI FIR EMBD TS FCST S OF N26 AND E OF E116 TOP FL360 MOV W 20KMH NC =",
            "optTypeShort": "WS"
        }, {
            "optTxt": " ZGZU SIGMET 4 VALID 201525/201925 ZGGG- ZGZU GUANGZHOU FIR EMBD TS FCST S OF N2530 TOP FL380 MOV WSW 30KMH NC=",
            "optTypeShort": "WS"
        }, {
            "optTxt": " ZHWH SIGMET 2 VALID 200700/201100 ZHHH- ZHWH WUHAN FIR EMBD TS FCST S OF N33 TOP FL340 MOV W 20KMH NC=",
            "optTypeShort": "WS"
        }, {
            "optTxt": " ZBPE SIGMET 1 VALID 200340/200740 ZBAA- ZBPE BEIJING FIR EMBD TS FCST N OF N40 TOP FL300 MOV E 25KMH NC=",
            "optTypeShort": "WS"
        }],
        "divTaf": [{
            "optTxt": " TAF ZGGG 210100Z 210312 07004MPS 8000 SCT040 TEMPO 0408 TSRA SCT011 SCT030CB BKN033 TEMPO 0812 TSRA SCT011 SCT030CB BKN033=",
            "optTypeShort": "FC"
        }]
    }
}