{
	"list": [{
		"optTxt": " METAR ZGGG 090330Z 34003MPS 260V030 9999 BKN060 29\/20 Q1012 NOSIG="
	}, {
		"optTxt": " TAF ZGGG 090302Z 090606 36004MPS 8000 BKN040="
	}, {
		"optTxt": " TAF ZGGG 090102Z 090312 36004MPS 8000 BKN040 TX28\/07Z TN25\/12Z="
	}, {
		"optTxt": " SPECI ZGGG 200703Z VRB03MPS 0800 R20L\/1200N R20R\/P2000 +TSRA SCT026CB SCT026 28\/26 Q0999 BECMG AT0750 NSW="
	}]
}